OPTICUBE 04             
1 41851U 16067D   24346.07272037  .00005247  00000+0  37086-3 0  9990
2 41851  98.0853 158.9035 0017151 178.2897 181.8390 15.05251831441822
AEROCUBE 8D             
1 41852U 16067E   24346.47237653  .00011796  00000+0  67181-3 0  9995
2 41852  98.1102 166.0811 0003725 225.0605 135.0322 15.12990554442156
AEROCUBE 8C             
1 41853U 16067F   24346.48765769  .00011796  00000+0  67077-3 0  9995
2 41853  98.0931 164.2556 0007129 152.0391 208.1222 15.13030291442149
PROMETHEUS 2-1          
1 41854U 16067G   24346.49013879  .00036675  00000+0  12636-2 0  9998
2 41854  98.0927 175.3324 0008851 162.5770 197.5774 15.29896235442712
PROMETHEUS 2-3          
1 41855U 16067H   24346.49370557  .00036783  00000+0  12710-2 0  9991
2 41855  98.0867 174.6536 0007348 173.6518 186.4815 15.29813279442716
CORVUS BC2              
1 42846U 17042X   24346.48554671  .00006343  00000+0  50597-3 0  9991
2 42846  97.3674 162.0829 0011200 176.2301 183.9010 15.00583056404007
CORVUS BC1              
1 42847U 17042Y   24346.49549773  .00006608  00000+0  52504-3 0  9994
2 42847  97.3673 162.5066 0010442 150.7291 209.4521 15.00727737404026
MIRATA                  
1 43015U 17073C   24346.73406403  .00048313  00000+0  15589-2 0  9995
2 43015  97.5674 230.9083 0131910   8.8153 351.5355 15.23877483383209
MAKERSAT 0              
1 43016U 17073D   24346.61917001  .00022043  00000+0  10555-2 0  9994
2 43016  97.5451 221.2904 0171280  40.1286 321.2445 15.06861797382540
SIRION PATHFINDER-2     
1 43759U 18099B   24346.60799697  .00008064  00000+0  54709-3 0  9992
2 43759  97.5076  37.9682 0011612  49.5216 310.7022 15.06627051329188
CORVUS BC4              
1 43767U 18099K   24346.41290140  .00007714  00000+0  53982-3 0  9992
2 43767  97.4902  34.3800 0011177  99.4634 260.7856 15.05483877329028
MOVE-II                 
1 43780U 18099Y   24346.17313156  .00047380  00000+0  14786-2 0  9994
2 43780  97.4968  49.1318 0005113  79.6361 280.5457 15.33047234329866
SPACEBEE-7              
1 43816U 18099BL  24346.14238670  .00027547  00000+0  11911-2 0  9998
2 43816  97.5255  48.6526 0008315  38.1831 321.9992 15.22396472329223
SPACEBEE-6              
1 43818U 18099BN  24346.65178397  .00296233  00000+0  27899-2 0  9997
2 43818  97.5097  60.0605 0004952 326.2080  33.8863 15.66147915330171
SHIELDS 1               
1 43850U 18104B   24346.54481935  .00026519  00000+0  51165-3 0  9995
2 43850  85.0192 161.9585 0010215 112.1514 248.0827 15.47626168333495
SONATE                  
1 44400U 19038Q   24346.56487266  .00050268  00000+0  88662-3 0  9999
2 44400  97.7126 350.4574 0011350 175.4483 184.6873 15.50175642301395
LUCKY-7                 
1 44406U 19038W   24346.51919267  .01286795  10707-2  14577-2 0  9999
2 44406  97.6831 359.9558 0005793 152.6273 207.5315 16.09469439302030
DUCHIFAT-3              
1 44854U 19089C   24346.51009234  .00034068  00000+0  11976-2 0  9991
2 44854  36.9513  43.9568 0010993 148.0813 212.0606 15.28437181275221
M2 PATHFINDER           
1 45727U 20037E   24346.49301600  .00005846  00000+0  47707-3 0  9999
2 45727  97.7763 162.4083 0011013 240.8460 119.1661 14.99777555242495
NETSAT-4                
1 46504U 20068U   24346.48642608  .00017559  00000+0  76059-3 0  9998
2 46504  97.8264 309.4719 0011237 103.4129 256.8360 15.22411397231072
NETSAT-3                
1 46505U 20068V   24346.41125594  .00016623  00000+0  73666-3 0  9994
2 46505  97.8249 308.6773 0010369 111.4140 248.8202 15.21654856231045
NETSAT-1                
1 46506U 20068W   24346.45954036  .00013699  00000+0  66437-3 0  9998
2 46506  97.8273 307.6247 0009032 121.0752 239.1368 15.18598751230973
NETSAT-2                
1 46507U 20068X   24346.64162676  .00017528  00000+0  76288-3 0  9991
2 46507  97.8255 309.2123 0008305 121.1279 239.0771 15.22276362231044
WILDTRACKCUBE-SIMBA     
1 47941U 21022K   24346.69138038  .00027303  00000+0  88343-3 0  9992
2 47941  97.4408 242.8011 0009849 234.0969 125.9359 15.31978103205537
GRBALPHA                
1 47959U 21022AD  24346.66347637  .00051070  00000+0  11527-2 0  9992
2 47959  97.4402 246.4654 0007113 208.5696 151.5163 15.43027831204597
BEESAT-8                
1 48085U 21022AP  24346.70175156  .00184485  00000+0  19489-2 0  9995
2 48085  97.4725 253.3420 0006258 136.5662 223.6090 15.63577011205252
LEDSAT                  
1 49069U 21073D   24346.64903053  .00035245  00000+0  93643-3 0  9996
2 49069  97.4168  57.8243 0014680  15.6585 344.5111 15.38071525183595
ROBUSTA-1F (MTCUBE 2)   
1 53109U 22080E   24346.36412725 -.00000003  00000+0  00000+0 0  9991
2 53109  70.1183 130.5154 0008376  49.9704 310.1690  6.42584155 56546
SITRO-AIS 5 (KATYS)     
1 57176U 23091L   24346.63333298  .00014045  00000+0  76889-3 0  9991
2 57176  97.5891  37.7082 0014835 230.7744 129.2171 15.14255189 80295
SITRO-AIS 6 (CHIRKIN)   
1 57192U 23091AC  24346.61384208  .00013391  00000+0  73315-3 0  9998
2 57192  97.5892  37.7194 0014577 229.9993 129.9960 15.14266123 80290
SITRO-AIS 8 (ANOKHIN)   
1 57193U 23091AD  24346.78594136  .00013944  00000+0  74654-3 0  9991
2 57193  97.5885  38.0935 0014316 230.1538 129.8435 15.15055997 80337
SITRO-AIS 7 (FARTUSHNIY)
1 57194U 23091AE  24346.56054922  .00014005  00000+0  76868-3 0  9990
2 57194  97.5890  37.6276 0014553 231.2909 128.7022 15.14167688 80288
SITRO-AIS 10 (BURDAEV)  
1 57199U 23091AK  24346.58119762  .00016465  00000+0  82322-3 0  9995
2 57199  97.5900  39.3852 0010091 215.0795 144.9775 15.17476842 80395
SITRO-AIS 9 (SHCHUKIN)  
1 57201U 23091AM  24346.84751765  .00016531  00000+0  82798-3 0  9994
2 57201  97.5895  39.6119 0010063 214.2871 145.7714 15.17414336 80433
SITRO-AIS 12 (SMIRENNIY)
1 57204U 23091AQ  24346.65528011  .00016185  00000+0  80633-3 0  9993
2 57204  97.5905  39.6240 0010092 208.3982 151.6703 15.17606214 80412
SITRO-AIS 11 (SHEFFER)  
1 57208U 23091AU  24346.62762164  .00016115  00000+0  79967-3 0  9994
2 57208  97.5904  39.6448 0009905 208.5784 151.4907 15.17746414 80419
VERONIKA                
1 58261U 23174F   24346.66627701  .00044164  00000+0  12345-2 0  9998
2 58261  97.4415  61.2708 0008652 336.1527  23.9315 15.36518031 60806
ROBUSTA-1E (ENSO)       
1 58470U 23185J   24346.80620071  .00034503  00000+0  98559-3 0  9999
2 58470  97.4038  52.8018 0009891  13.8914 346.2600 15.35883260 57277
SITRO-AIS 29            
1 59052U 24039B   24346.87485948  .00063922  00000+0  12576-2 0  9995
2 59052  97.4082 309.6430 0008458 318.7271  41.3339 15.47007686 43860
SITRO-AIS 30            
1 59053U 24039C   24346.64221073  .00061563  00000+0  12340-2 0  9996
2 59053  97.4085 309.3375 0009015 320.5545  39.5047 15.46469074 43816
SITRO-AIS 31            
1 59054U 24039D   24346.67230759  .00062343  00000+0  12315-2 0  9990
2 59054  97.4080 309.4505 0008759 320.6061  39.4551 15.46893932 43842
SITRO-AIS 33            
1 59055U 24039E   24346.65033825  .00061154  00000+0  12029-2 0  9995
2 59055  97.4085 309.4923 0008379 322.1751  37.8909 15.47026068 43830
SITRO-AIS 35            
1 59056U 24039F   24346.64408517  .00063588  00000+0  12480-2 0  9993
2 59056  97.4084 309.4950 0008382 323.4746  36.5931 15.47080047 43830
SITRO-AIS 32            
1 59057U 24039G   24346.80317808  .00060074  00000+0  11943-2 0  9994
2 59057  97.4087 309.5953 0008579 321.7345  38.3295 15.46719645 43859
SITRO-AIS 34            
1 59058U 24039H   24346.64980376  .00063129  00000+0  12422-2 0  9990
2 59058  97.4085 309.4949 0008350 322.1779  37.8883 15.47007343 43836
SITRO-AIS 36            
1 59059U 24039J   24346.62899443  .00061450  00000+0  12031-2 0  9994
2 59059  97.4081 309.5168 0008217 323.6984  36.3708 15.47161498 43835
SITRO-AIS 49            
1 59060U 24039K   24346.64674370  .00060770  00000+0  12053-2 0  9996
2 59060  97.4090 309.4969 0008420 322.4488  37.6172 15.46786121 43831
SITRO-AIS 50            
1 59061U 24039L   24346.85795129  .00063370  00000+0  12252-2 0  9996
2 59061  97.4080 309.8188 0007968 321.7767  38.2917 15.47519986 43878
SITRO-AIS 51            
1 59062U 24039M   24346.66150971  .00064973  00000+0  12521-2 0  9995
2 59062  97.4077 309.6211 0007883 323.7207  36.3507 15.47608341 43842
SITRO-AIS 52            
1 59063U 24039N   24346.64314159  .00061707  00000+0  11871-2 0  9993
2 59063  97.4085 309.6510 0007865 323.1484  36.9224 15.47672651 43842
SITRO-AIS 25            
1 59066U 24039R   24346.62651248  .00005607  00000+0  49805-3 0  9993
2 59066  95.3870 217.6926 0164840  91.0739 270.9373 14.86410928 42432
SITRO-AIS 26            
1 59067U 24039S   24346.63519768  .00005862  00000+0  52207-3 0  9998
2 59067  95.3869 217.6842 0165014  91.1304 270.8827 14.86280841 42433
SITRO-AIS 27            
1 59068U 24039T   24346.66735038  .00006674  00000+0  59052-3 0  9999
2 59068  95.3872 217.7686 0164450  90.6513 271.3555 14.86560323 42445
SITRO-AIS 28            
1 59071U 24039U   24346.65933307  .00006291  00000+0  55651-3 0  9997
2 59071  95.3872 217.7790 0164250  90.6360 271.3684 14.86602704 42446
GRBBETA                 
1 60237U 24128C   24346.30671430  .00007488  00000+0  61260-3 0  9992
2 60237  61.9942 346.8041 0030910  12.5769 347.6084 14.99753272 23130
OOV-CUBE (TUBSAT-30)    
1 60240U 24128F   24346.40214192  .00005270  00000+0  45276-3 0  9991
2 60240  61.9982 347.3153 0028948   8.0178 352.1367 14.98346804 23144
ROBUSTA-3A (MEDITERRAN*)
1 60243U 24128J   24346.42620542  .00011761  00000+0  94483-3 0  9992
2 60243  61.9913 346.7649 0029243   2.3189 357.8031 15.00087517 23150
